[{"OBJECT_NAME":"STARLINK-4304","OBJECT_ID":"2022-097AC","EPOCH":"2026-03-09T08:43:44.794560","MEAN_MOTION":15.08832983,"ECCENTRICITY":0.00012785,"INCLINATION":53.2165,"RA_OF_ASC_NODE":115.5831,"ARG_OF_PERICENTER":80.5289,"MEAN_ANOMALY":279.5848,"EPHEMERIS_TYPE":0,"CLASSIFICATION_TYPE":"U","NORAD_CAT_ID":53414,"ELEMENT_SET_NO":999,"REV_AT_EPOCH":19859,"BSTAR":-3.781897e-6,"MEAN_MOTION_DOT":-3.48e-6,"MEAN_MOTION_DDOT":0},{"OBJECT_NAME":"COSMOS 375 DEB","OBJECT_ID":"1970-091S","EPOCH":"2026-03-09T22:51:46.743840","MEAN_MOTION":13.67879692,"ECCENTRICITY":0.06958217,"INCLINATION":62.529,"RA_OF_ASC_NODE":0.4446,"ARG_OF_PERICENTER":155.8551,"MEAN_ANOMALY":207.6827,"EPHEMERIS_TYPE":0,"CLASSIFICATION_TYPE":"U","NORAD_CAT_ID":4665,"ELEMENT_SET_NO":999,"REV_AT_EPOCH":64170,"BSTAR":0.00074210766,"MEAN_MOTION_DOT":3.514e-5,"MEAN_MOTION_DDOT":0}]
